STARLINK-36899          
1 68058U 26041U   26072.58334491 -.00056750  00000+0 -28594-3 0  9999
2 68058  53.1590  42.4703 0000440  21.7993  69.2592 15.80869360  3003
STARLINK-36917          
1 68059U 26041V   26072.58334491 -.00200497  00000+0 -10306-2 0  9990
2 68059  53.1588  42.4619 0000870 108.7027 346.5881 15.80985704  3001
STARLINK-36959          
1 68060U 26041W   26072.58334491 -.00472830  00000+0 -24914-2 0  9994
2 68060  53.1589  42.4526 0000861  82.2406  17.2377 15.81166591  3006
STARLINK-36915          
1 68061U 26041X   26072.58334491 -.00603200  00000+0 -32104-2 0  9992
2 68061  53.1588  42.4437 0000426 111.3416 352.3365 15.81280186  3006
STARLINK-36952          
1 68062U 26041Y   26072.58334491 -.00776847  00000+0 -41920-2 0  9997
2 68062  53.1588  42.4356 0000756 109.2849 358.5817 15.81417005  3001
STARLINK-37000          
1 68063U 26041Z   26072.58334491 -.01006814  00000+0 -55440-2 0  9991
2 68063  53.1587  42.4267 0000839 105.2200   6.8355 15.81569689  3007
STARLINK-36996          
1 68064U 26041AA  26072.58334491 -.01124722  00000+0 -61219-2 0  9992
2 68064  53.1585  42.4180 0000542  60.9778  55.2639 15.81688064  3000
STARLINK-36836          
1 68065U 26041AB  26072.58334491 -.01383392  00000+0 -74557-2 0  9992
2 68065  53.1586  42.4006 0000839  76.2967  48.2158 15.82007464  3006
STARLINK-36976          
1 68066U 26041AC  26072.58334491 -.01474023  00000+0 -79581-2 0  9997
2 68066  53.1586  42.3921 0000630  92.9686  35.6827 15.82142304  3000
STARLINK-36929          
1 68067U 26041AD  26072.58334491 -.01293648  00000+0 -71130-2 0  9992
2 68067  53.1585  42.4092 0000995  58.2719  62.1346 15.81842699  3000
STARLINK-36990          
1 68068U 26041AE  26072.58334491 -.01542608  00000+0 -83433-2 0  9995
2 68068  53.1584  42.3833 0000731  66.9741  65.8629 15.82233945  3004
STARLINK-36766          
1 68069U 26042A   26072.58334491 -.01315569  00000+0 -47005-2 0  9996
2 68069  53.1595 175.3824 0001069  61.9991  56.7281 15.90615315  2669
STARLINK-36823          
1 68070U 26042B   26072.58334491 -.01487395  62247-3 -46884-2 0  9994
2 68070  53.1589 175.3759 0000968  74.5115  47.2684 15.90736224  2661
STARLINK-36970          
1 68071U 26042C   26072.58334491 -.01481692  61949-3 -46151-2 0  9994
2 68071  53.1595 175.3636 0001149  60.0336  67.7340 15.90967300  2678
STARLINK-36972          
1 68072U 26042D   26072.58334491 -.01480122  61765-3 -46360-2 0  9990
2 68072  53.1595 175.3703 0001030  60.4822  64.0493 15.90858689  2675
STARLINK-37074          
1 68073U 26042E   26072.58334491 -.01486448  62386-3 -46013-2 0  9993
2 68073  53.1595 175.3576 0001113  61.5912  69.2085 15.91089172  2676
