[{"OBJECT_NAME":"STARLINK-36899","OBJECT_ID":"2026-041U","EPOCH":"2026-03-13T14:00:01.000224","MEAN_MOTION":15.8086936,"ECCENTRICITY":4.4e-5,"INCLINATION":53.159,"RA_OF_ASC_NODE":42.4703,"ARG_OF_PERICENTER":21.7993,"MEAN_ANOMALY":69.2592,"EPHEMERIS_TYPE":0,"CLASSIFICATION_TYPE":"U","NORAD_CAT_ID":68058,"ELEMENT_SET_NO":999,"REV_AT_EPOCH":300,"BSTAR":-0.00028593742,"MEAN_MOTION_DOT":-0.0005675,"MEAN_MOTION_DDOT":0},{"OBJECT_NAME":"STARLINK-36917","OBJECT_ID":"2026-041V","EPOCH":"2026-03-13T14:00:01.000224","MEAN_MOTION":15.80985704,"ECCENTRICITY":8.701e-5,"INCLINATION":53.1588,"RA_OF_ASC_NODE":42.4619,"ARG_OF_PERICENTER":108.7027,"MEAN_ANOMALY":346.5881,"EPHEMERIS_TYPE":0,"CLASSIFICATION_TYPE":"U","NORAD_CAT_ID":68059,"ELEMENT_SET_NO":999,"REV_AT_EPOCH":300,"BSTAR":-0.0010306156,"MEAN_MOTION_DOT":-0.00200497,"MEAN_MOTION_DDOT":0},{"OBJECT_NAME":"STARLINK-36959","OBJECT_ID":"2026-041W","EPOCH":"2026-03-13T14:00:01.000224","MEAN_MOTION":15.81166591,"ECCENTRICITY":8.611e-5,"INCLINATION":53.1589,"RA_OF_ASC_NODE":42.4526,"ARG_OF_PERICENTER":82.2406,"MEAN_ANOMALY":17.2377,"EPHEMERIS_TYPE":0,"CLASSIFICATION_TYPE":"U","NORAD_CAT_ID":68060,"ELEMENT_SET_NO":999,"REV_AT_EPOCH":300,"BSTAR":-0.0024913812,"MEAN_MOTION_DOT":-0.0047283,"MEAN_MOTION_DDOT":0},{"OBJECT_NAME":"STARLINK-36915","OBJECT_ID":"2026-041X","EPOCH":"2026-03-13T14:00:01.000224","MEAN_MOTION":15.81280186,"ECCENTRICITY":4.269e-5,"INCLINATION":53.1588,"RA_OF_ASC_NODE":42.4437,"ARG_OF_PERICENTER":111.3416,"MEAN_ANOMALY":352.3365,"EPHEMERIS_TYPE":0,"CLASSIFICATION_TYPE":"U","NORAD_CAT_ID":68061,"ELEMENT_SET_NO":999,"REV_AT_EPOCH":300,"BSTAR":-0.0032103972,"MEAN_MOTION_DOT":-0.006032,"MEAN_MOTION_DDOT":0},{"OBJECT_NAME":"STARLINK-36952","OBJECT_ID":"2026-041Y","EPOCH":"2026-03-13T14:00:01.000224","MEAN_MOTION":15.81417005,"ECCENTRICITY":7.561e-5,"INCLINATION":53.1588,"RA_OF_ASC_NODE":42.4356,"ARG_OF_PERICENTER":109.2849,"MEAN_ANOMALY":358.5817,"EPHEMERIS_TYPE":0,"CLASSIFICATION_TYPE":"U","NORAD_CAT_ID":68062,"ELEMENT_SET_NO":999,"REV_AT_EPOCH":300,"BSTAR":-0.0041919795,"MEAN_MOTION_DOT":-0.00776847,"MEAN_MOTION_DDOT":0},{"OBJECT_NAME":"STARLINK-37000","OBJECT_ID":"2026-041Z","EPOCH":"2026-03-13T14:00:01.000224","MEAN_MOTION":15.81569689,"ECCENTRICITY":8.397e-5,"INCLINATION":53.1587,"RA_OF_ASC_NODE":42.4267,"ARG_OF_PERICENTER":105.22,"MEAN_ANOMALY":6.8355,"EPHEMERIS_TYPE":0,"CLASSIFICATION_TYPE":"U","NORAD_CAT_ID":68063,"ELEMENT_SET_NO":999,"REV_AT_EPOCH":300,"BSTAR":-0.0055439676,"MEAN_MOTION_DOT":-0.01006814,"MEAN_MOTION_DDOT":0},{"OBJECT_NAME":"STARLINK-36996","OBJECT_ID":"2026-041AA","EPOCH":"2026-03-13T14:00:01.000224","MEAN_MOTION":15.81688064,"ECCENTRICITY":5.428e-5,"INCLINATION":53.1585,"RA_OF_ASC_NODE":42.418,"ARG_OF_PERICENTER":60.9778,"MEAN_ANOMALY":55.2639,"EPHEMERIS_TYPE":0,"CLASSIFICATION_TYPE":"U","NORAD_CAT_ID":68064,"ELEMENT_SET_NO":999,"REV_AT_EPOCH":300,"BSTAR":-0.0061218713,"MEAN_MOTION_DOT":-0.01124722,"MEAN_MOTION_DDOT":0},{"OBJECT_NAME":"STARLINK-36836","OBJECT_ID":"2026-041AB","EPOCH":"2026-03-13T14:00:01.000224","MEAN_MOTION":15.82007464,"ECCENTRICITY":8.398e-5,"INCLINATION":53.1586,"RA_OF_ASC_NODE":42.4006,"ARG_OF_PERICENTER":76.2967,"MEAN_ANOMALY":48.2158,"EPHEMERIS_TYPE":0,"CLASSIFICATION_TYPE":"U","NORAD_CAT_ID":68065,"ELEMENT_SET_NO":999,"REV_AT_EPOCH":300,"BSTAR":-0.0074556581,"MEAN_MOTION_DOT":-0.01383392,"MEAN_MOTION_DDOT":0},{"OBJECT_NAME":"STARLINK-36976","OBJECT_ID":"2026-041AC","EPOCH":"2026-03-13T14:00:01.000224","MEAN_MOTION":15.82142304,"ECCENTRICITY":6.309e-5,"INCLINATION":53.1586,"RA_OF_ASC_NODE":42.3921,"ARG_OF_PERICENTER":92.9686,"MEAN_ANOMALY":35.6827,"EPHEMERIS_TYPE":0,"CLASSIFICATION_TYPE":"U","NORAD_CAT_ID":68066,"ELEMENT_SET_NO":999,"REV_AT_EPOCH":300,"BSTAR":-0.0079580879,"MEAN_MOTION_DOT":-0.01474023,"MEAN_MOTION_DDOT":0},{"OBJECT_NAME":"STARLINK-36929","OBJECT_ID":"2026-041AD","EPOCH":"2026-03-13T14:00:01.000224","MEAN_MOTION":15.81842699,"ECCENTRICITY":9.951e-5,"INCLINATION":53.1585,"RA_OF_ASC_NODE":42.4092,"ARG_OF_PERICENTER":58.2719,"MEAN_ANOMALY":62.1346,"EPHEMERIS_TYPE":0,"CLASSIFICATION_TYPE":"U","NORAD_CAT_ID":68067,"ELEMENT_SET_NO":999,"REV_AT_EPOCH":300,"BSTAR":-0.0071129946,"MEAN_MOTION_DOT":-0.01293648,"MEAN_MOTION_DDOT":0},{"OBJECT_NAME":"STARLINK-36990","OBJECT_ID":"2026-041AE","EPOCH":"2026-03-13T14:00:01.000224","MEAN_MOTION":15.82233945,"ECCENTRICITY":7.317e-5,"INCLINATION":53.1584,"RA_OF_ASC_NODE":42.3833,"ARG_OF_PERICENTER":66.9741,"MEAN_ANOMALY":65.8629,"EPHEMERIS_TYPE":0,"CLASSIFICATION_TYPE":"U","NORAD_CAT_ID":68068,"ELEMENT_SET_NO":999,"REV_AT_EPOCH":300,"BSTAR":-0.0083433236,"MEAN_MOTION_DOT":-0.01542608,"MEAN_MOTION_DDOT":0},{"OBJECT_NAME":"STARLINK-36766","OBJECT_ID":"2026-042A","EPOCH":"2026-03-13T14:00:01.000224","MEAN_MOTION":15.90615315,"ECCENTRICITY":0.00010692,"INCLINATION":53.1595,"RA_OF_ASC_NODE":175.3824,"ARG_OF_PERICENTER":61.9991,"MEAN_ANOMALY":56.7281,"EPHEMERIS_TYPE":0,"CLASSIFICATION_TYPE":"U","NORAD_CAT_ID":68069,"ELEMENT_SET_NO":999,"REV_AT_EPOCH":266,"BSTAR":-0.0047004666,"MEAN_MOTION_DOT":-0.01315569,"MEAN_MOTION_DDOT":0},{"OBJECT_NAME":"STARLINK-36823","OBJECT_ID":"2026-042B","EPOCH":"2026-03-13T14:00:01.000224","MEAN_MOTION":15.90736224,"ECCENTRICITY":9.68e-5,"INCLINATION":53.1589,"RA_OF_ASC_NODE":175.3759,"ARG_OF_PERICENTER":74.5115,"MEAN_ANOMALY":47.2684,"EPHEMERIS_TYPE":0,"CLASSIFICATION_TYPE":"U","NORAD_CAT_ID":68070,"ELEMENT_SET_NO":999,"REV_AT_EPOCH":266,"BSTAR":-0.0046883556,"MEAN_MOTION_DOT":-0.01487395,"MEAN_MOTION_DDOT":0.00062247477},{"OBJECT_NAME":"STARLINK-36970","OBJECT_ID":"2026-042C","EPOCH":"2026-03-13T14:00:01.000224","MEAN_MOTION":15.909673,"ECCENTRICITY":0.00011497,"INCLINATION":53.1595,"RA_OF_ASC_NODE":175.3636,"ARG_OF_PERICENTER":60.0336,"MEAN_ANOMALY":67.734,"EPHEMERIS_TYPE":0,"CLASSIFICATION_TYPE":"U","NORAD_CAT_ID":68071,"ELEMENT_SET_NO":999,"REV_AT_EPOCH":267,"BSTAR":-0.0046151401,"MEAN_MOTION_DOT":-0.01481692,"MEAN_MOTION_DDOT":0.00061948747},{"OBJECT_NAME":"STARLINK-36972","OBJECT_ID":"2026-042D","EPOCH":"2026-03-13T14:00:01.000224","MEAN_MOTION":15.90858689,"ECCENTRICITY":0.00010301,"INCLINATION":53.1595,"RA_OF_ASC_NODE":175.3703,"ARG_OF_PERICENTER":60.4822,"MEAN_ANOMALY":64.0493,"EPHEMERIS_TYPE":0,"CLASSIFICATION_TYPE":"U","NORAD_CAT_ID":68072,"ELEMENT_SET_NO":999,"REV_AT_EPOCH":267,"BSTAR":-0.0046359744,"MEAN_MOTION_DOT":-0.01480122,"MEAN_MOTION_DDOT":0.00061764605},{"OBJECT_NAME":"STARLINK-37074","OBJECT_ID":"2026-042E","EPOCH":"2026-03-13T14:00:01.000224","MEAN_MOTION":15.91089172,"ECCENTRICITY":0.00011136,"INCLINATION":53.1595,"RA_OF_ASC_NODE":175.3576,"ARG_OF_PERICENTER":61.5912,"MEAN_ANOMALY":69.2085,"EPHEMERIS_TYPE":0,"CLASSIFICATION_TYPE":"U","NORAD_CAT_ID":68073,"ELEMENT_SET_NO":999,"REV_AT_EPOCH":267,"BSTAR":-0.0046012996,"MEAN_MOTION_DOT":-0.01486448,"MEAN_MOTION_DDOT":0.0006238567}]
